[{"OBJECT_NAME":"STARLINK-3184","OBJECT_ID":"2022-005AR","EPOCH":"2026-03-09T22:49:37.787520","MEAN_MOTION":15.08832675,"ECCENTRICITY":0.00014218,"INCLINATION":53.2186,"RA_OF_ASC_NODE":307.9465,"ARG_OF_PERICENTER":92.1976,"MEAN_ANOMALY":267.9179,"EPHEMERIS_TYPE":0,"CLASSIFICATION_TYPE":"U","NORAD_CAT_ID":51143,"ELEMENT_SET_NO":999,"REV_AT_EPOCH":22863,"BSTAR":5.6323526e-5,"MEAN_MOTION_DOT":6.08e-6,"MEAN_MOTION_DDOT":0},{"OBJECT_NAME":"OBJECT D","OBJECT_ID":"2025-013D","EPOCH":"2026-03-09T22:45:56.369376","MEAN_MOTION":15.10588544,"ECCENTRICITY":0.0008827,"INCLINATION":97.6457,"RA_OF_ASC_NODE":238.3603,"ARG_OF_PERICENTER":18.3993,"MEAN_ANOMALY":341.7554,"EPHEMERIS_TYPE":0,"CLASSIFICATION_TYPE":"U","NORAD_CAT_ID":62732,"ELEMENT_SET_NO":999,"REV_AT_EPOCH":6229,"BSTAR":0.00036300228,"MEAN_MOTION_DOT":5.935e-5,"MEAN_MOTION_DDOT":0}]
